NORAD_CAT_ID,OBJECT_NAME,OBJECT_TYPE,EPOCH,MEAN_MOTION,ECCENTRICITY,INCLINATION,RA_OF_ASC_NODE,ARG_OF_PERICENTER,MEAN_ANOMALY,BSTAR,MEAN_MOTION_DOT,MEAN_MOTION_DDOT,TLE_LINE0,TLE_LINE1,TLE_LINE2,SEMIMAJOR_AXIS,PERIOD,APOGEE,PERIGEE,DECAYED
53558.0,STARLINK-4494,PAYLOAD,2022-09-30 06:00:02,15.73226189,0.0004106,53.2157,309.5490000000001,9.7398,351.4036,0.00014056,0.00019178,0.0,0 STARLINK-4494,1 53558U 22101AH  22273.25002315  .00019178  00000-0  14056-3 0  9991,2 53558  53.2157 309.5490 0004106   9.7398 351.4036 15.73226189  6549,6727.821,91.532,352.4480000000001,346.923,0.0
53558.0,STARLINK-4494,PAYLOAD,2022-09-30 14:00:01,15.73254788,0.0004335,53.2156,307.9007,7.7192,82.3313,-7.4905e-05,-0.00011155,0.0,0 STARLINK-4494,1 53558U 22101AH  22273.58334491 -.00011155  00000-0 -74905-4 0  9999,2 53558  53.2156 307.9007 0004335   7.7192  82.3313 15.73254788  1301,6727.739000000001,91.53,352.52,346.68800000000016,0.0
53558.0,STARLINK-4494,PAYLOAD,2022-09-30 22:00:00,15.73218831,0.0004081,53.2156,306.249,4.5568,174.5033,0.00013593,0.00018518,0.0,0 STARLINK-4494,1 53558U 22101AH  22273.91667824  .00018518  00000-0  13593-3 0  9998,2 53558  53.2156 306.2490 0004081   4.5568 174.5033 15.73218831  1301,6727.840999999999,91.532,352.452,346.961,0.0
53558.0,STARLINK-4494,PAYLOAD,2022-10-01 06:00:00,15.73204839,0.0004113999999999,53.2176,304.5898,9.433,258.4417,-3.0887e-06,-1.059e-05,0.0,0 STARLINK-4494,1 53558U 22101AH  22274.25001157 -.00001059  00000-0 -30887-5 0  9998,2 53558  53.2176 304.5898 0004114   9.4330 258.4417 15.73204839  6704,6727.880999999999,91.533,352.514,346.97900000000016,0.0
53558.0,STARLINK-4494,PAYLOAD,2022-10-01 14:00:01,15.73222007,0.0004365,53.2149,302.9519,2.1458,354.7997,-7.8768e-05,-0.00011681,0.0,0 STARLINK-4494,1 53558U 22101AH  22274.58334491 -.00011681  00000-0 -78768-4 0  9995,2 53558  53.2149 302.9519 0004365   2.1458 354.7997 15.73222007  6750,6727.831999999999,91.532,352.634,346.761,0.0
53558.0,STARLINK-4494,PAYLOAD,2022-10-01 22:00:00,15.73191603,0.0004014999999999,53.2152,301.3002,2.8724,83.036,-0.00038567,-0.0005440999999999,0.0,0 STARLINK-4494,1 53558U 22101AH  22274.91667824 -.00054410  00000-0 -38567-3 0  9990,2 53558  53.2152 301.3002 0004015   2.8724  83.0360 15.73191603  1308,6727.919,91.534,352.485,347.083,0.0
53558.0,STARLINK-4494,PAYLOAD,2022-10-02 06:00:00,15.7313637,0.0004147,53.2154,299.6517,4.7741,170.0297,-5.5566e-05,-8.398e-05,0.0,0 STARLINK-4494,1 53558U 22101AH  22275.25001157 -.00008398  00000-0 -55566-4 0  9992,2 53558  53.2154 299.6517 0004147   4.7741 170.0297 15.73136370  6868,6728.0769999999975,91.537,352.732,347.151,0.0
53558.0,STARLINK-4494,PAYLOAD,2022-10-02 14:00:01,15.73134855,0.0004358,53.2152,298.0033,4.0558,259.5982,0.0006165,0.00086589,0.0,0 STARLINK-4494,1 53558U 22101AH  22275.58334491  .00086589  00000-0  61650-3 0  9994,2 53558  53.2152 298.0033 0004358   4.0558 259.5982 15.73134855  6911,6728.081,91.537,352.87800000000016,347.014,0.0
53558.0,STARLINK-4494,PAYLOAD,2022-10-02 22:00:00,15.73172763,0.0004123,53.2152,296.3519,5.5749,346.9813,0.00086809,0.00122904,0.0,0 STARLINK-4494,1 53558U 22101AH  22275.91667824  .00122904  00000-0  86809-3 0  9995,2 53558  53.2152 296.3519 0004123   5.5749 346.9813 15.73172763  1301,6727.973000000001,91.535,352.612,347.064,0.0
53558.0,STARLINK-4494,PAYLOAD,2022-10-03 14:00:01,15.73266217,0.0004286,53.2144,293.0549,2.4885,168.00599999999997,-0.00020783,-0.00029789,0.0,0 STARLINK-4494,1 53558U 22101AH  22276.58334491 -.00029789  00000-0 -20783-3 0  9998,2 53558  53.2144 293.0549 0004286   2.4885 168.0060 15.73266217  7071,6727.706,91.529,352.455,346.68800000000016,0.0
53558.0,STARLINK-4494,PAYLOAD,2022-10-03 22:00:00,15.732162900000002,0.0003959,53.2144,291.4032,0.4581,259.0412,0.0001918,0.00026408,0.0,0 STARLINK-4494,1 53558U 22101AH  22276.91667824  .00026408  00000-0  19180-3 0  9996,2 53558  53.2144 291.4032 0003959   0.4581 259.0412 15.73216290  1305,6727.849,91.532,352.37699999999984,347.05,0.0
53558.0,STARLINK-4494,PAYLOAD,2022-10-04 14:00:01,15.73210848,0.0004204,53.2144,288.1059,359.9543,77.4703,-0.00037188,-0.00052544,0.0,0 STARLINK-4494,1 53558U 22101AH  22277.58334491 -.00052544  00000-0 -37188-3 0  9991,2 53558  53.2144 288.1059 0004204 359.9543  77.4703 15.73210848  1309,6727.864000000001,91.533,352.55800000000005,346.901,0.0
53558.0,STARLINK-4494,PAYLOAD,2022-10-04 22:00:00,15.73144878,0.0003878,53.2143,286.454,359.4526,166.8981,0.00075299,0.00106181,0.0,0 STARLINK-4494,1 53558U 22101AH  22277.91667824  .00106181  00000-0  75299-3 0  9997,2 53558  53.2143 286.4540 0003878 359.4526 166.8981 15.73144878  7289,6728.052,91.536,352.526,347.30800000000005,0.0
53558.0,STARLINK-4494,PAYLOAD,2022-10-05 06:00:00,15.73358105,0.0003825,53.2157,284.8011,0.5654,254.6726,-0.0033816,-0.00453915,0.0,0 STARLINK-4494,1 53558U 22101AH  22278.25001157 -.00453915  00000-0 -33816-2 0  9996,2 53558  53.2157 284.8011 0003825   0.5654 254.6726 15.73358105  7336,6727.444,91.524,351.8830000000001,346.736,0.0
53558.0,STARLINK-4494,PAYLOAD,2022-10-05 14:00:01,15.731775199999998,0.0004178999999999,53.2133,283.1574,2.965,341.2591,-0.00018363,-0.00026304,0.0,0 STARLINK-4494,1 53558U 22101AH  22278.58335648 -.00026304  00000-0 -18363-3 0  9996,2 53558  53.2133 283.1574 0004179   2.9650 341.2591 15.73177520  7389,6727.959,91.534,352.636,347.01300000000015,0.0
53558.0,STARLINK-4494,PAYLOAD,2022-10-05 22:00:00,15.73104827,0.0003859,53.2134,281.506,6.3775,66.6859,0.00089998,0.00127129,0.0,0 STARLINK-4494,1 53558U 22101AH  22278.91667824  .00127129  00000-0  89998-3 0  9994,2 53558  53.2134 281.5060 0003859   6.3775  66.6859 15.73104827  1303,6728.167,91.539,352.62800000000016,347.435,0.0
53558.0,STARLINK-4494,PAYLOAD,2022-10-06 06:00:00,15.73208538,0.0004061,53.2139,279.8573,6.4567,155.4739,-0.00036047,-0.00050953,0.0,0 STARLINK-4494,1 53558U 22101AH  22279.25001157 -.00050953  00000-0 -36047-3 0  9992,2 53558  53.2139 279.8573 0004061   6.4567 155.4739 15.73208538  7497,6727.871,91.533,352.468,347.004,0.0
53558.0,STARLINK-4494,PAYLOAD,2022-10-06 14:00:01,15.73222716,0.0004081,53.2132,278.2087,3.9845,246.8713,-4.2492e-06,-1.222e-05,0.0,0 STARLINK-4494,1 53558U 22101AH  22279.58334491 -.00001222  00000-0 -42492-5 0  9996,2 53558  53.2132 278.2087 0004081   3.9845 246.8713 15.73222716  1301,6727.83,91.532,352.441,346.95,0.0
53558.0,STARLINK-4494,PAYLOAD,2022-10-06 22:42:55,15.73205757,0.000386,53.2133,276.4098,5.5712,143.07,0.00023238,0.00032134,0.0,0 STARLINK-4494,1 53558U 22101AH  22279.94646991  .00032134  00000-0  23238-3 0  9996,2 53558  53.2133 276.4098 0003860   5.5712 143.0700 15.73205757  7608,6727.879,91.533,352.341,347.147,0.0
53558.0,STARLINK-4494,PAYLOAD,2022-10-07 14:00:01,15.73203036,0.0004043,53.2124,273.2594,3.2376,154.5314,-0.00021205,-0.00030296,0.0,0 STARLINK-4494,1 53558U 22101AH  22280.58334491 -.00030296  00000-0 -21205-3 0  9998,2 53558  53.2124 273.2594 0004043   3.2376 154.5314 15.73203036  7706,6727.887,91.533,352.472,347.031,0.0
53558.0,STARLINK-4494,PAYLOAD,2022-10-07 22:00:00,15.7316699,0.0003693,53.2128,271.6065,0.6748,246.0213,0.00027019,0.00037424,0.0,0 STARLINK-4494,1 53558U 22101AH  22280.91667824  .00037424  00000-0  27019-3 0  9991,2 53558  53.2128 271.6065 0003693   0.6748 246.0213 15.73166990  1301,6727.989000000001,91.535,352.339,347.37,0.0
53558.0,STARLINK-4494,PAYLOAD,2022-10-08 14:00:01,15.73076363,0.0003701,53.2164,268.3001,323.1796,101.2719,-0.0058097,-0.00744224,0.0,0 STARLINK-4494,1 53558U 22101AH  22281.58334491 -.00744224  00000-0 -58097-2 0  9990,2 53558  53.2164 268.3001 0003701 323.1796 101.2719 15.73076363  7864,6728.248000000001,91.54,352.603,347.62300000000016,0.0
53558.0,STARLINK-4494,PAYLOAD,2022-10-08 22:00:00,15.72531958,0.0004971999999999,53.2175,266.6486,287.4289,225.4956,-0.0085155,-0.01047677,0.0,0 STARLINK-4494,1 53558U 22101AH  22281.91667824 -.01047677  00000-0 -85155-2 0  9990,2 53558  53.2175 266.6486 0004972 287.4289 225.4956 15.72531958  7917,6729.8,91.572,355.01199999999994,348.319,0.0
53558.0,STARLINK-4494,PAYLOAD,2022-10-09 14:00:01,15.70977149,0.0007003,53.2163,263.3594,273.136,54.2203,-0.0086393999999999,-0.01000864,0.0,0 STARLINK-4494,1 53558U 22101AH  22282.58334491 -.01000864  00000-0 -86394-2 0  9998,2 53558  53.2163 263.3594 0007003 273.1360  54.2203 15.70977149  1302,6734.24,91.663,360.821,351.389,0.0
53558.0,STARLINK-4494,PAYLOAD,2022-10-09 22:00:00,15.70259888,0.0006567,53.2173,261.7132,269.8859,143.2918,-0.009477,-0.01058466,0.0,0 STARLINK-4494,1 53558U 22101AH  22282.91667824 -.01058466  00000-0 -94770-2 0  9992,2 53558  53.2173 261.7132 0006567 269.8859 143.2918 15.70259888  1307,6736.291,91.705,362.579,353.732,0.0
53558.0,STARLINK-4494,PAYLOAD,2022-10-10 06:00:00,15.69511674,0.0003611,53.2172,260.0739,272.2468,225.8526,-0.0099917999999999,-0.01077347,0.0,0 STARLINK-4494,1 53558U 22101AH  22283.25001157 -.01077347  00000-0 -99918-2 0  9999,2 53558  53.2172 260.0739 0003611 272.2468 225.8526 15.69511674  8123,6738.431,91.748,362.73,357.86300000000006,0.0
53558.0,STARLINK-4494,PAYLOAD,2022-10-10 14:00:01,15.68737383,2.98e-05,53.2173,258.4334,285.1261,296.9939,-0.010066,-0.0105221,0.0,0 STARLINK-4494,1 53558U 22101AH  22283.58334491 -.01052210  00000-0 -10066-1 0  9993,2 53558  53.2173 258.4334 0000298 285.1261 296.9939 15.68737383  1304,6740.648,91.794,362.714,362.31300000000016,0.0
53558.0,STARLINK-4494,PAYLOAD,2022-10-10 22:00:01,15.67975531,9.61e-05,53.2176,256.7943,94.0138,211.2736,-0.010325,-0.01046651,0.0,0 STARLINK-4494,1 53558U 22101AH  22283.91668981 -.01046651  00000-0 -10325-1 0  9994,2 53558  53.2176 256.7943 0000961  94.0138 211.2736 15.67975531  1304,6742.831999999999,91.838,365.345,364.049,0.0
53558.0,STARLINK-4494,PAYLOAD,2022-10-11 14:00:01,15.66459338,0.0001336,53.2173,253.5255,50.4919,58.1926,-0.011038,-0.01051174,0.0,0 STARLINK-4494,1 53558U 22101AH  22284.58334491 -.01051174  00000-0 -11038-1 0  9992,2 53558  53.2173 253.5255 0001336  50.4919  58.1926 15.66459338  8332,6747.182,91.927,369.948,368.146,0.0
